CZ-2F DEB               
1 67719U 26024F   26060.43377089  .00150733  00000+0  36927-2 0  9996
2 67719  49.7917  61.5970 0320265 238.3867 118.5455 15.00989711  3005
CZ-2F DEB               
1 67720U 26024G   26060.47337373  .00149890  00000+0  37734-2 0  9993
2 67720  49.8311  61.8816 0330812 234.7886 122.1670 14.98340655  3327
STARLINK-36772          
1 67721U 26026A   26042.75317130 -.00000725  22934-5  00000+0 0  9999
2 67721  97.2800  95.5280 0003400 259.0800  81.2200 16.07750770    15
STARLINK-36796          
1 67722U 26026B   26060.91668981 -.01923207  00000+0 -13006-1 0  9998
2 67722  97.2850 115.1951 0001646  70.4709  22.0732 15.78135276  4065
STARLINK-36369          
1 67723U 26026C   26060.89923620 -.00763267  00000+0 -47053-2 0  9997
2 67723  97.2851 115.1781 0001134  51.8271 308.3098 15.79069690  2900
STARLINK-36752          
1 67724U 26026D   26060.89759764 -.00667947  00000+0 -38668-2 0  9994
2 67724  97.2852 115.1806 0001089  80.0442 280.0949 15.80211056  2901
STARLINK-36754          
1 67725U 26026E   26060.91668981 -.01922743  00000+0 -13531-1 0  9998
2 67725  97.2848 115.2024 0001886  67.0143  42.6466 15.77243814  4066
STARLINK-36755          
1 67726U 26026F   26060.91668981 -.01919090  00000+0 -15045-1 0  9992
2 67726  97.2845 115.2020 0001839  67.5465  39.7146 15.74795851  4062
STARLINK-36741          
1 67727U 26026G   26060.91668981 -.01928613  00000+0 -14400-1 0  9998
2 67727  97.2847 115.2054 0001738  70.5439  46.9193 15.75925052  4066
STARLINK-36757          
1 67728U 26026H   26060.89305758 -.00063592  00000+0 -33544-3 0  9993
2 67728  97.2861 115.1838 0001716  68.5244 291.6207 15.80698697  2903
STARLINK-36751          
1 67729U 26026J   26060.89056338  .00096992  00000+0  50084-3 0  9997
2 67729  97.2863 115.1871 0001673  65.9595 294.1849 15.80844086  2900
STARLINK-36747          
1 67730U 26026K   26060.89206488  .00175737  00000+0  89746-3 0  9994
2 67730  97.2861 115.1857 0001853  66.1329 294.0134 15.80873716  2900
