CCSDS_OMM_VERS = 2.0
CREATION_DATE  = 
ORIGINATOR     = 

OBJECT_NAME    = CZ-2F DEB
OBJECT_ID      = 2026-024F
CENTER_NAME    = EARTH
REF_FRAME      = TEME
TIME_SYSTEM    = UTC
MEAN_ELEMENT_THEORY = SGP/SGP4

EPOCH          = 2026-03-01T10:24:37.804896
MEAN_MOTION    = 15.00989711
ECCENTRICITY   = .03202659
INCLINATION    = 49.7917
RA_OF_ASC_NODE = 61.5970
ARG_OF_PERICENTER = 238.3867
MEAN_ANOMALY   = 118.5455

EPHEMERIS_TYPE = 0
CLASSIFICATION_TYPE = U
NORAD_CAT_ID   = 67719
ELEMENT_SET_NO = 999
REV_AT_EPOCH   = 300
BSTAR          = .36927131E-2
MEAN_MOTION_DOT = .150733E-2
MEAN_MOTION_DDOT = 0

CCSDS_OMM_VERS = 2.0
CREATION_DATE  = 
ORIGINATOR     = 

OBJECT_NAME    = CZ-2F DEB
OBJECT_ID      = 2026-024G
CENTER_NAME    = EARTH
REF_FRAME      = TEME
TIME_SYSTEM    = UTC
MEAN_ELEMENT_THEORY = SGP/SGP4

EPOCH          = 2026-03-01T11:21:39.490272
MEAN_MOTION    = 14.98340655
ECCENTRICITY   = .03308129
INCLINATION    = 49.8311
RA_OF_ASC_NODE = 61.8816
ARG_OF_PERICENTER = 234.7886
MEAN_ANOMALY   = 122.1670

EPHEMERIS_TYPE = 0
CLASSIFICATION_TYPE = U
NORAD_CAT_ID   = 67720
ELEMENT_SET_NO = 999
REV_AT_EPOCH   = 332
BSTAR          = .37734495E-2
MEAN_MOTION_DOT = .14989E-2
MEAN_MOTION_DDOT = 0

CCSDS_OMM_VERS = 2.0
CREATION_DATE  = 
ORIGINATOR     = 

OBJECT_NAME    = STARLINK-36772
OBJECT_ID      = 2026-026A
CENTER_NAME    = EARTH
REF_FRAME      = TEME
TIME_SYSTEM    = UTC
MEAN_ELEMENT_THEORY = SGP/SGP4

EPOCH          = 2026-02-11T18:04:34.000320
MEAN_MOTION    = 16.07750770
ECCENTRICITY   = .00034
INCLINATION    = 97.2800
RA_OF_ASC_NODE = 95.5280
ARG_OF_PERICENTER = 259.0800
MEAN_ANOMALY   = 81.2200

EPHEMERIS_TYPE = 0
CLASSIFICATION_TYPE = U
NORAD_CAT_ID   = 67721
ELEMENT_SET_NO = 999
REV_AT_EPOCH   = 1
BSTAR          = 0
MEAN_MOTION_DOT = -.725E-5
MEAN_MOTION_DDOT = .2293429E-5

CCSDS_OMM_VERS = 2.0
CREATION_DATE  = 
ORIGINATOR     = 

OBJECT_NAME    = STARLINK-36796
OBJECT_ID      = 2026-026B
CENTER_NAME    = EARTH
REF_FRAME      = TEME
TIME_SYSTEM    = UTC
MEAN_ELEMENT_THEORY = SGP/SGP4

EPOCH          = 2026-03-01T22:00:01.999584
MEAN_MOTION    = 15.78135276
ECCENTRICITY   = .00016461
INCLINATION    = 97.2850
RA_OF_ASC_NODE = 115.1951
ARG_OF_PERICENTER = 70.4709
MEAN_ANOMALY   = 22.0732

EPHEMERIS_TYPE = 0
CLASSIFICATION_TYPE = U
NORAD_CAT_ID   = 67722
ELEMENT_SET_NO = 999
REV_AT_EPOCH   = 406
BSTAR          = -.13005608E-1
MEAN_MOTION_DOT = -.1923207E-1
MEAN_MOTION_DDOT = 0

CCSDS_OMM_VERS = 2.0
CREATION_DATE  = 
ORIGINATOR     = 

OBJECT_NAME    = STARLINK-36369
OBJECT_ID      = 2026-026C
CENTER_NAME    = EARTH
REF_FRAME      = TEME
TIME_SYSTEM    = UTC
MEAN_ELEMENT_THEORY = SGP/SGP4

EPOCH          = 2026-03-01T21:34:54.007680
MEAN_MOTION    = 15.79069690
ECCENTRICITY   = .00011345
INCLINATION    = 97.2851
RA_OF_ASC_NODE = 115.1781
ARG_OF_PERICENTER = 51.8271
MEAN_ANOMALY   = 308.3098

EPHEMERIS_TYPE = 0
CLASSIFICATION_TYPE = U
NORAD_CAT_ID   = 67723
ELEMENT_SET_NO = 999
REV_AT_EPOCH   = 290
BSTAR          = -.47053233E-2
MEAN_MOTION_DOT = -.763267E-2
MEAN_MOTION_DDOT = 0

CCSDS_OMM_VERS = 2.0
CREATION_DATE  = 
ORIGINATOR     = 

OBJECT_NAME    = STARLINK-36752
OBJECT_ID      = 2026-026D
CENTER_NAME    = EARTH
REF_FRAME      = TEME
TIME_SYSTEM    = UTC
MEAN_ELEMENT_THEORY = SGP/SGP4

EPOCH          = 2026-03-01T21:32:32.436096
MEAN_MOTION    = 15.80211056
ECCENTRICITY   = .00010897
INCLINATION    = 97.2852
RA_OF_ASC_NODE = 115.1806
ARG_OF_PERICENTER = 80.0442
MEAN_ANOMALY   = 280.0949

EPHEMERIS_TYPE = 0
CLASSIFICATION_TYPE = U
NORAD_CAT_ID   = 67724
ELEMENT_SET_NO = 999
REV_AT_EPOCH   = 290
BSTAR          = -.38667668E-2
MEAN_MOTION_DOT = -.667947E-2
MEAN_MOTION_DDOT = 0

CCSDS_OMM_VERS = 2.0
CREATION_DATE  = 
ORIGINATOR     = 

OBJECT_NAME    = STARLINK-36754
OBJECT_ID      = 2026-026E
CENTER_NAME    = EARTH
REF_FRAME      = TEME
TIME_SYSTEM    = UTC
MEAN_ELEMENT_THEORY = SGP/SGP4

EPOCH          = 2026-03-01T22:00:01.999584
MEAN_MOTION    = 15.77243814
ECCENTRICITY   = .00018863
INCLINATION    = 97.2848
RA_OF_ASC_NODE = 115.2024
ARG_OF_PERICENTER = 67.0143
MEAN_ANOMALY   = 42.6466

EPHEMERIS_TYPE = 0
CLASSIFICATION_TYPE = U
NORAD_CAT_ID   = 67725
ELEMENT_SET_NO = 999
REV_AT_EPOCH   = 406
BSTAR          = -.13531111E-1
MEAN_MOTION_DOT = -.1922743E-1
MEAN_MOTION_DDOT = 0

CCSDS_OMM_VERS = 2.0
CREATION_DATE  = 
ORIGINATOR     = 

OBJECT_NAME    = STARLINK-36755
OBJECT_ID      = 2026-026F
CENTER_NAME    = EARTH
REF_FRAME      = TEME
TIME_SYSTEM    = UTC
MEAN_ELEMENT_THEORY = SGP/SGP4

EPOCH          = 2026-03-01T22:00:01.999584
MEAN_MOTION    = 15.74795851
ECCENTRICITY   = .00018398
INCLINATION    = 97.2845
RA_OF_ASC_NODE = 115.2020
ARG_OF_PERICENTER = 67.5465
MEAN_ANOMALY   = 39.7146

EPHEMERIS_TYPE = 0
CLASSIFICATION_TYPE = U
NORAD_CAT_ID   = 67726
ELEMENT_SET_NO = 999
REV_AT_EPOCH   = 406
BSTAR          = -.15044738E-1
MEAN_MOTION_DOT = -.191909E-1
MEAN_MOTION_DDOT = 0

CCSDS_OMM_VERS = 2.0
CREATION_DATE  = 
ORIGINATOR     = 

OBJECT_NAME    = STARLINK-36741
OBJECT_ID      = 2026-026G
CENTER_NAME    = EARTH
REF_FRAME      = TEME
TIME_SYSTEM    = UTC
MEAN_ELEMENT_THEORY = SGP/SGP4

EPOCH          = 2026-03-01T22:00:01.999584
MEAN_MOTION    = 15.75925052
ECCENTRICITY   = .00017381
INCLINATION    = 97.2847
RA_OF_ASC_NODE = 115.2054
ARG_OF_PERICENTER = 70.5439
MEAN_ANOMALY   = 46.9193

EPHEMERIS_TYPE = 0
CLASSIFICATION_TYPE = U
NORAD_CAT_ID   = 67727
ELEMENT_SET_NO = 999
REV_AT_EPOCH   = 406
BSTAR          = -.14399614E-1
MEAN_MOTION_DOT = -.1928613E-1
MEAN_MOTION_DDOT = 0

CCSDS_OMM_VERS = 2.0
CREATION_DATE  = 
ORIGINATOR     = 

OBJECT_NAME    = STARLINK-36757
OBJECT_ID      = 2026-026H
CENTER_NAME    = EARTH
REF_FRAME      = TEME
TIME_SYSTEM    = UTC
MEAN_ELEMENT_THEORY = SGP/SGP4

EPOCH          = 2026-03-01T21:26:00.174912
MEAN_MOTION    = 15.80698697
ECCENTRICITY   = .00017168
INCLINATION    = 97.2861
RA_OF_ASC_NODE = 115.1838
ARG_OF_PERICENTER = 68.5244
MEAN_ANOMALY   = 291.6207

EPHEMERIS_TYPE = 0
CLASSIFICATION_TYPE = U
NORAD_CAT_ID   = 67728
ELEMENT_SET_NO = 999
REV_AT_EPOCH   = 290
BSTAR          = -.33544404E-3
MEAN_MOTION_DOT = -.63592E-3
MEAN_MOTION_DDOT = 0

CCSDS_OMM_VERS = 2.0
CREATION_DATE  = 
ORIGINATOR     = 

OBJECT_NAME    = STARLINK-36751
OBJECT_ID      = 2026-026J
CENTER_NAME    = EARTH
REF_FRAME      = TEME
TIME_SYSTEM    = UTC
MEAN_ELEMENT_THEORY = SGP/SGP4

EPOCH          = 2026-03-01T21:22:24.676032
MEAN_MOTION    = 15.80844086
ECCENTRICITY   = .00016732
INCLINATION    = 97.2863
RA_OF_ASC_NODE = 115.1871
ARG_OF_PERICENTER = 65.9595
MEAN_ANOMALY   = 294.1849

EPHEMERIS_TYPE = 0
CLASSIFICATION_TYPE = U
NORAD_CAT_ID   = 67729
ELEMENT_SET_NO = 999
REV_AT_EPOCH   = 290
BSTAR          = .50083883E-3
MEAN_MOTION_DOT = .96992E-3
MEAN_MOTION_DDOT = 0

CCSDS_OMM_VERS = 2.0
CREATION_DATE  = 
ORIGINATOR     = 

OBJECT_NAME    = STARLINK-36747
OBJECT_ID      = 2026-026K
CENTER_NAME    = EARTH
REF_FRAME      = TEME
TIME_SYSTEM    = UTC
MEAN_ELEMENT_THEORY = SGP/SGP4

EPOCH          = 2026-03-01T21:24:34.405632
MEAN_MOTION    = 15.80873716
ECCENTRICITY   = .00018534
INCLINATION    = 97.2861
RA_OF_ASC_NODE = 115.1857
ARG_OF_PERICENTER = 66.1329
MEAN_ANOMALY   = 294.0134

EPHEMERIS_TYPE = 0
CLASSIFICATION_TYPE = U
NORAD_CAT_ID   = 67730
ELEMENT_SET_NO = 999
REV_AT_EPOCH   = 290
BSTAR          = .89745969E-3
MEAN_MOTION_DOT = .175737E-2
MEAN_MOTION_DDOT = 0

